WNISAT 1R               
1 42835U 17042L   26068.86192839  .00004802  00000+0  37840-3 0  9992
2 42835  97.4515 228.7079 0013301 131.3338 228.9034 15.01153186471607
STARLINK-5660           
1 55335U 23013E   26068.07554763  .00000287  00000+0  36285-4 0  9993
2 55335  43.0036 303.9656 0001080 274.6932  85.3787 15.02536319171612
